[{"CCSDS_OMM_VERS":"2.0","COMMENT":"GENERATED VIA SPACE-TRACK.ORG API","CREATION_DATE":"2004-08-15T23:35:47","ORIGINATOR":"18 SPCS","OBJECT_NAME":"ATLAS D DEB","OBJECT_ID":"1966-046AV","CENTER_NAME":"EARTH","REF_FRAME":"TEME","TIME_SYSTEM":"UTC","MEAN_ELEMENT_THEORY":"SGP4","EPOCH":"1966-06-21T03:36:25.495775","MEAN_MOTION":"15.87773527","ECCENTRICITY":"0.01380670","INCLINATION":"28.7897","RA_OF_ASC_NODE":"168.0382","ARG_OF_PERICENTER":"76.6335","MEAN_ANOMALY":"284.9055","EPHEMERIS_TYPE":"0","CLASSIFICATION_TYPE":"U","NORAD_CAT_ID":"2278","ELEMENT_SET_NO":"999","REV_AT_EPOCH":"310","BSTAR":"0.00000000000000","MEAN_MOTION_DOT":"0.00102017","MEAN_MOTION_DDOT":"0.0000210840000","SEMIMAJOR_AXIS":"6686.667","PERIOD":"90.693","APOAPSIS":"400.853","PERIAPSIS":"216.211","OBJECT_TYPE":"DEBRIS","RCS_SIZE":null,"COUNTRY_CODE":null,"LAUNCH_DATE":null,"SITE":null,"DECAY_DATE":"1966-07-04","FILE":"33914","GP_ID":"8720237","TLE_LINE0":"0 ATLAS D DEB","TLE_LINE1":"1 02278U 66046 AV 66172.15029509  .00102017 +21084-4 +00000-0 0  9994","TLE_LINE2":"2 02278 028.7897 168.0382 0138067 076.6335 284.9055 15.87773527003104"},{"CCSDS_OMM_VERS":"2.0","COMMENT":"GENERATED VIA SPACE-TRACK.ORG API","CREATION_DATE":"2004-08-15T23:35:47","ORIGINATOR":"18 SPCS","OBJECT_NAME":"ATLAS D DEB","OBJECT_ID":"1966-046AU","CENTER_NAME":"EARTH","REF_FRAME":"TEME","TIME_SYSTEM":"UTC","MEAN_ELEMENT_THEORY":"SGP4","EPOCH":"1966-06-21T03:38:03.195167","MEAN_MOTION":"15.88467662","ECCENTRICITY":"0.02011360","INCLINATION":"28.4341","RA_OF_ASC_NODE":"171.1618","ARG_OF_PERICENTER":"52.8550","MEAN_ANOMALY":"308.9849","EPHEMERIS_TYPE":"0","CLASSIFICATION_TYPE":"U","NORAD_CAT_ID":"2277","ELEMENT_SET_NO":"999","REV_AT_EPOCH":"310","BSTAR":"0.00000000000000","MEAN_MOTION_DOT":"0.00261616","MEAN_MOTION_DDOT":"0.0001396700000","SEMIMAJOR_AXIS":"6684.719","PERIOD":"90.653","APOAPSIS":"441.038","PERIAPSIS":"172.130","OBJECT_TYPE":"DEBRIS","RCS_SIZE":null,"COUNTRY_CODE":null,"LAUNCH_DATE":null,"SITE":null,"DECAY_DATE":"1966-07-04","FILE":"33914","GP_ID":"8720236","TLE_LINE0":"0 ATLAS D DEB","TLE_LINE1":"1 02277U 66046 AU 66172.15142587  .00261616 +13967-3 +00000-0 0  9996","TLE_LINE2":"2 02277 028.4341 171.1618 0201136 052.8550 308.9849 15.88467662003103"},{"CCSDS_OMM_VERS":"2.0","COMMENT":"GENERATED VIA SPACE-TRACK.ORG API","CREATION_DATE":"2004-08-15T23:35:47","ORIGINATOR":"18 SPCS","OBJECT_NAME":"ATLAS D DEB","OBJECT_ID":"1966-046BC","CENTER_NAME":"EARTH","REF_FRAME":"TEME","TIME_SYSTEM":"UTC","MEAN_ELEMENT_THEORY":"SGP4","EPOCH":"1966-06-21T03:48:43.972991","MEAN_MOTION":"16.10925176","ECCENTRICITY":"0.00289430","INCLINATION":"28.5697","RA_OF_ASC_NODE":"170.7247","ARG_OF_PERICENTER":"107.2473","MEAN_ANOMALY":"253.0772","EPHEMERIS_TYPE":"0","CLASSIFICATION_TYPE":"U","NORAD_CAT_ID":"2285","ELEMENT_SET_NO":"999","REV_AT_EPOCH":"315","BSTAR":"0.00000000000000","MEAN_MOTION_DOT":"0.00001080","MEAN_MOTION_DDOT":"0.0000000031795","SEMIMAJOR_AXIS":"6622.447","PERIOD":"89.389","APOAPSIS":"263.480","PERIAPSIS":"225.145","OBJECT_TYPE":"DEBRIS","RCS_SIZE":null,"COUNTRY_CODE":null,"LAUNCH_DATE":null,"SITE":null,"DECAY_DATE":"1966-07-04","FILE":"33914","GP_ID":"8720244","TLE_LINE0":"0 ATLAS D DEB","TLE_LINE1":"1 02285U 66046 BC 66172.15884228  .00001080 +31795-8 +00000-0 0  9991","TLE_LINE2":"2 02285 028.5697 170.7247 0028943 107.2473 253.0772 16.10925176003157"},{"CCSDS_OMM_VERS":"2.0","COMMENT":"GENERATED VIA SPACE-TRACK.ORG API","CREATION_DATE":"2004-08-15T23:35:47","ORIGINATOR":"18 SPCS","OBJECT_NAME":"ATLAS D DEB","OBJECT_ID":"1966-046BB","CENTER_NAME":"EARTH","REF_FRAME":"TEME","TIME_SYSTEM":"UTC","MEAN_ELEMENT_THEORY":"SGP4","EPOCH":"1966-06-21T03:56:15.616896","MEAN_MOTION":"16.08854818","ECCENTRICITY":"0.00163580","INCLINATION":"28.6734","RA_OF_ASC_NODE":"169.4394","ARG_OF_PERICENTER":"115.1172","MEAN_ANOMALY":"245.0650","EPHEMERIS_TYPE":"0","CLASSIFICATION_TYPE":"U","NORAD_CAT_ID":"2284","ELEMENT_SET_NO":"999","REV_AT_EPOCH":"314","BSTAR":"0.00000000000000","MEAN_MOTION_DOT":"0.00186405","MEAN_MOTION_DDOT":"0.0000916570000","SEMIMAJOR_AXIS":"6628.127","PERIOD":"89.504","APOAPSIS":"260.835","PERIAPSIS":"239.150","OBJECT_TYPE":"DEBRIS","RCS_SIZE":null,"COUNTRY_CODE":null,"LAUNCH_DATE":null,"SITE":null,"DECAY_DATE":"1966-07-04","FILE":"33914","GP_ID":"8720243","TLE_LINE0":"0 ATLAS D DEB","TLE_LINE1":"1 02284U 66046 BB 66172.16406964  .00186405 +91657-4 +00000-0 0  9992","TLE_LINE2":"2 02284 028.6734 169.4394 0016358 115.1172 245.0650 16.08854818003144"},{"CCSDS_OMM_VERS":"2.0","COMMENT":"GENERATED VIA SPACE-TRACK.ORG API","CREATION_DATE":"2004-08-15T23:35:47","ORIGINATOR":"18 SPCS","OBJECT_NAME":"ATLAS D DEB","OBJECT_ID":"1966-046J","CENTER_NAME":"EARTH","REF_FRAME":"TEME","TIME_SYSTEM":"UTC","MEAN_ELEMENT_THEORY":"SGP4","EPOCH":"1966-06-21T03:57:07.807680","MEAN_MOTION":"16.07753051","ECCENTRICITY":"0.00895980","INCLINATION":"28.7181","RA_OF_ASC_NODE":"169.1159","ARG_OF_PERICENTER":"93.9441","MEAN_ANOMALY":"267.0823","EPHEMERIS_TYPE":"0","CLASSIFICATION_TYPE":"U","NORAD_CAT_ID":"2232","ELEMENT_SET_NO":"999","REV_AT_EPOCH":"302","BSTAR":"0.00000000000000","MEAN_MOTION_DOT":"0.00180397","MEAN_MOTION_DDOT":"0.0000844470000","SEMIMAJOR_AXIS":"6631.155","PERIOD":"89.565","APOAPSIS":"312.434","PERIAPSIS":"193.606","OBJECT_TYPE":"DEBRIS","RCS_SIZE":null,"COUNTRY_CODE":null,"LAUNCH_DATE":null,"SITE":null,"DECAY_DATE":"1966-06-30","FILE":"33914","GP_ID":"8720110","TLE_LINE0":"0 ATLAS D DEB","TLE_LINE1":"1 02232U 66046  J 66172.16467370  .00180397 +84447-4 +00000-0 0  9996","TLE_LINE2":"2 02232 028.7181 169.1159 0089598 093.9441 267.0823 16.07753051003027"},{"CCSDS_OMM_VERS":"2.0","COMMENT":"GENERATED VIA SPACE-TRACK.ORG API","CREATION_DATE":"2004-08-15T23:35:47","ORIGINATOR":"18 SPCS","OBJECT_NAME":"ATLAS D DEB","OBJECT_ID":"1966-046BA","CENTER_NAME":"EARTH","REF_FRAME":"TEME","TIME_SYSTEM":"UTC","MEAN_ELEMENT_THEORY":"SGP4","EPOCH":"1966-06-21T03:57:32.957855","MEAN_MOTION":"16.77322940","ECCENTRICITY":"0.02878360","INCLINATION":"28.6520","RA_OF_ASC_NODE":"166.8642","ARG_OF_PERICENTER":"314.8953","MEAN_ANOMALY":"42.8312","EPHEMERIS_TYPE":"0","CLASSIFICATION_TYPE":"U","NORAD_CAT_ID":"2283","ELEMENT_SET_NO":"999","REV_AT_EPOCH":"328","BSTAR":"0.00000000000000","MEAN_MOTION_DOT":"0.00372618","MEAN_MOTION_DDOT":"0.0004304200000","SEMIMAJOR_AXIS":"6446.505","PERIOD":"85.851","APOAPSIS":"253.923","PERIAPSIS":"-117.183","OBJECT_TYPE":"DEBRIS","RCS_SIZE":null,"COUNTRY_CODE":null,"LAUNCH_DATE":null,"SITE":null,"DECAY_DATE":"1966-07-04","FILE":"33914","GP_ID":"8720242","TLE_LINE0":"0 ATLAS D DEB","TLE_LINE1":"1 02283U 66046 BA 66172.16496479  .00372618 +43042-3 +00000-0 0  9998","TLE_LINE2":"2 02283 028.6520 166.8642 0287836 314.8953 042.8312 16.77322940003284"},{"CCSDS_OMM_VERS":"2.0","COMMENT":"GENERATED VIA SPACE-TRACK.ORG API","CREATION_DATE":"2004-08-15T23:35:47","ORIGINATOR":"18 SPCS","OBJECT_NAME":"ATLAS D DEB","OBJECT_ID":"1966-046E","CENTER_NAME":"EARTH","REF_FRAME":"TEME","TIME_SYSTEM":"UTC","MEAN_ELEMENT_THEORY":"SGP4","EPOCH":"1966-06-21T03:59:12.059520","MEAN_MOTION":"16.08581612","ECCENTRICITY":"0.00270020","INCLINATION":"28.5788","RA_OF_ASC_NODE":"170.3529","ARG_OF_PERICENTER":"146.8927","MEAN_ANOMALY":"213.3116","EPHEMERIS_TYPE":"0","CLASSIFICATION_TYPE":"U","NORAD_CAT_ID":"2228","ELEMENT_SET_NO":"999","REV_AT_EPOCH":"313","BSTAR":"0.00000000000000","MEAN_MOTION_DOT":"0.00055411","MEAN_MOTION_DDOT":"0.0000080661000","SEMIMAJOR_AXIS":"6628.878","PERIOD":"89.519","APOAPSIS":"268.642","PERIAPSIS":"232.844","OBJECT_TYPE":"DEBRIS","RCS_SIZE":null,"COUNTRY_CODE":null,"LAUNCH_DATE":null,"SITE":null,"DECAY_DATE":"1966-06-30","FILE":"33914","GP_ID":"8720106","TLE_LINE0":"0 ATLAS D DEB","TLE_LINE1":"1 02228U 66046  E 66172.16611180  .00055411 +80661-5 +00000-0 0  9994","TLE_LINE2":"2 02228 028.5788 170.3529 0027002 146.8927 213.3116 16.08581612003131"},{"CCSDS_OMM_VERS":"2.0","COMMENT":"GENERATED VIA SPACE-TRACK.ORG API","CREATION_DATE":"2004-08-15T23:35:47","ORIGINATOR":"18 SPCS","OBJECT_NAME":"SL-8 DEB","OBJECT_ID":"1965-020CT","CENTER_NAME":"EARTH","REF_FRAME":"TEME","TIME_SYSTEM":"UTC","MEAN_ELEMENT_THEORY":"SGP4","EPOCH":"1966-06-21T05:40:34.028543","MEAN_MOTION":"15.35259596","ECCENTRICITY":"0.02490070","INCLINATION":"56.0598","RA_OF_ASC_NODE":"119.5057","ARG_OF_PERICENTER":"219.5774","MEAN_ANOMALY":"138.6373","EPHEMERIS_TYPE":"0","CLASSIFICATION_TYPE":"U","NORAD_CAT_ID":"1547","ELEMENT_SET_NO":"999","REV_AT_EPOCH":"6601","BSTAR":"0.00000000000000","MEAN_MOTION_DOT":"0.00405666","MEAN_MOTION_DDOT":"0.0002241400000","SEMIMAJOR_AXIS":"6838.290","PERIOD":"93.795","APOAPSIS":"630.434","PERIAPSIS":"289.877","OBJECT_TYPE":"DEBRIS","RCS_SIZE":null,"COUNTRY_CODE":null,"LAUNCH_DATE":null,"SITE":null,"DECAY_DATE":"1966-07-24","FILE":"33914","GP_ID":"8713355","TLE_LINE0":"0 SL-8 DEB","TLE_LINE1":"1 01547U 65020 CT 66172.23650496  .00405666 +22414-3 +00000-0 0  9990","TLE_LINE2":"2 01547 056.0598 119.5057 0249007 219.5774 138.6373 15.35259596066011"}]